ONEWEB-0007             
1 44060U 19010D   23059.13435835  .00000110  00000+0  25759-3 0  9998
2 44060  87.9087 139.1360 0001400 100.0482 260.0806 13.15549775192975
ONEWEB-0007             
1 44060U 19010D   23059.28647233  .00000125  00000+0  29731-3 0  9991
2 44060  87.9086 139.1058 0001393 100.2422 259.8866 13.15550325192958
ONEWEB-0007             
1 44060U 19010D   23059.74281634  .00000090  00000+0  20613-3 0  9992
2 44060  87.9084 139.0153 0001389 100.8729 259.2558 13.15549782193017
ONEWEB-0007             
1 44060U 19010D   23060.57944556  .00000123  00000+0  29278-3 0  9997
2 44060  87.9085 138.8493 0001392 100.9409 259.1877 13.15549904193123
ONEWEB-0007             
1 44060U 19010D   23061.56818872  .00000149  00000+0  36276-3 0  9992
2 44060  87.9081 138.6531 0001389 102.1057 258.0228 13.15550259193256
ONEWEB-0007             
1 44060U 19010D   23062.55693216  .00000015  00000+0  64207-5 0  9994
2 44060  87.9080 138.4568 0001396 102.9644 257.1642 13.15550532193389
